INTELSAT 30             
1 40271C 14062A   21119.00000000 -.00003474  00000-0  00000-0 0  1194
2 40271   0.0028 289.3411 0001886 164.9231  27.8616  1.00270519    19
INTELSAT 34             
1 40874C 15039A   21116.00000000 -.00000196  00000-0  00000-0 0  1160
2 40874   0.0091 273.5525 0000348 293.1604 312.0228  1.00270116    11
INTELSAT 34             
1 40874C 15039A   21119.00000000 -.00000196  00000-0  00000-0 0  1196
2 40874   0.0053 293.5112 0000349 241.7906 346.3827  1.00270081    14
INTELSAT 34         [PM]
1 40874C 15039A   21119.09225694 -.00000203  00000-0  00000-0 0  1192
2 40874   0.0028 267.0836 0000293 253.3821  34.5169  1.00272575    13
INTELSAT 31             
1 41581C 16035A   21115.92850694 -.00000061  00000-0  00000-0 0  1155
2 41581   0.0174 247.2053 0001926 327.8770 238.2833  1.00270447    13
INTELSAT 31             
1 41581C 16035A   21119.00000000 -.00000061  00000-0  00000-0 0  1190
2 41581   0.0137 254.5896 0002125 314.6546 272.8859  1.00270783    10
INTELSAT 31         [PM]
1 41581C 16035A   21119.70391204 -.00000061  00000-0  00000-0 0  1196
2 41581   0.0136 249.6223 0001957 319.7176 166.8861  1.00272405    13
INTELSAT 36             
1 41747C 16053A   21116.00000000  .00000064  00000-0  00000-0 0  1160
2 41747   0.0280 304.1233 0001678  69.7785 268.8129  1.00271536    17
INTELSAT 36             
1 41747C 16053A   21119.00000000  .00000069  00000-0  00000-0 0  1191
2 41747   0.0220 319.3701 0001557  60.1076 266.1913  1.00272108    11
INTELSAT 36         [PM]
1 41747C 16053A   21119.31613426  .00000066  00000-0  00000-0 0  1194
2 41747   0.0188 310.0440 0001692  65.5251  24.2155  1.00271837    15
INTELSAT 33E            
1 41748C 16053B   21116.00000000  .00000140  00000-0  00000-0 0  1166
2 41748   0.0311 328.8215 0001940  80.5806 224.8130  1.00271002    15
INTELSAT 33E        [PM]
1 41748C 16053B   21118.04773148  .00000139  00000-0  00000-0 0  1182
2 41748   0.0336 321.5371 0001906  98.0921 233.7802  1.00271972    10
INTELSAT 33E            
1 41748C 16053B   21119.00000000  .00000139  00000-0  00000-0 0  1190
2 41748   0.0309 327.4889 0001924  94.9032 214.7724  1.00272312    18
INTELSAT 33E        [PM]
1 41748C 16053B   21119.35538194  .00000139  00000-0  00000-0 0  1198
2 41748   0.0301 331.2722 0001914  91.7081 342.4725  1.00272188    18
INTELSAT 32E            
1 41945C 17007B   21116.00000000 -.00000255  00000-0  00000-0 0  1163
2 41945   0.0013 261.0300 0000410  90.8740 179.1554  1.00270156    19
INTELSAT 32E            
1 41945C 17007B   21119.00000000 -.00000179  00000-0  00000-0 0  1194
2 41945   0.0001 303.3756 0000285 119.6473 110.9688  1.00269587    11
INTELSAT 32E        [PM]
1 41945C 17007B   21119.31508102 -.00004836  00000-0  00000-0 0  1198
2 41945   0.0382  84.2099 0000504 280.6429 282.8762  1.00273912    11
INTELSAT 35E            
1 42818C 17041A   21116.00000000 -.00000148  00000-0  00000-0 0  1162
2 42818   0.0148 231.3490 0002341 174.2638 134.1212  1.00271810    16
INTELSAT 35E            
1 42818C 17041A   21119.00000000 -.00000147  00000-0  00000-0 0  1197
2 42818   0.0098 212.1914 0002387 201.0788 129.4140  1.00271330    17
INTELSAT 35E        [PM]
1 42818C 17041A   21121.80035880 -.00000148  00000-0  00000-0 0  1216
2 42818   0.0149 221.2564 0002410 195.2390  57.0687  1.00270480    13
INTELSAT 37E            
1 42950C 17059A   21116.00000000 -.00000066  00000-0  00000-0 0  1167
2 42950   0.0067 264.6154 0002955 161.4260 130.1821  1.00270976    13
INTELSAT 37E        [PM]
1 42950C 17059A   21118.84947917 -.00000100  00000-0  00000-0 0  1189
2 42950   0.0000 254.0071 0002707 137.4738 113.3711  1.00271649    18
INTELSAT 37E            
1 42950C 17059A   21119.00000000 -.00003435  00000-0  00000-0 0  1196
2 42950   0.0001 286.4943 0002841 131.6667 141.0140  1.00282822    11
AZERSPACE 2             
1 43632C 18074A   21116.00000000 -.00006558  00000-0  00000-0 0  1165
2 43632   0.0000 244.7962 0001681 158.4726 216.0638  1.00269593    15
AZERSPACE 2             
1 43632C 18074A   21119.00000000  .00000025  00000-0  00000-0 0  1193
2 43632   0.0325  93.5020 0001707 324.7062 204.0717  1.00271611    19
HORIZONS 3E             
1 43633C 18074B   21116.00000000  .00000040  00000-0  00000-0 0  1165
2 43633   0.0155 349.2696 0000993 337.4519  56.4923  1.00267824    14
HORIZONS 3E             
1 43633C 18074B   21119.00000000  .00000103  00000-0  00000-0 0  1191
2 43633   0.0428  62.4948 0000941 262.8212  60.8452  1.00268873    16
INTELSAT 39             
1 44476C 19049B   21115.90881944  .00000316  00000-0  00000-0 0  1151
2 44476   0.0116 271.7989 0000930 264.2752  67.1793  1.00270548    19
INTELSAT 39         [PM]
1 44476C 19049B   21117.75763889  .00000124  00000-0  00000-0 0  1172
2 44476   0.0065 259.2774 0000541 251.7458  39.6209  1.00271655    13
INTELSAT 39             
1 44476C 19049B   21119.00000000  .00000124  00000-0  00000-0 0  1193
2 44476   0.0040 285.1096 0000547 225.8817 128.1234  1.00270840    15
GALAXY 30               
1 46114C 20056C   21116.00000000 -.00004381  00000-0  00000-0 0  1168
2 46114   0.0000 202.4808 0002223 197.3240  49.4265  1.00269387    14
GALAXY 30               
1 46114C 20056C   21119.00000000  .00000103  00000-0  00000-0 0  1191
2 46114   0.0033 174.0889 0002232 233.9498  44.1372  1.00271256    14
GALAXY 30           [PM]
1 46114C 20056C   21119.03125000 -.00004625  00000-0  00000-0 0  1196
2 46114   0.0000 276.0575 0002231 133.2599  54.1396  1.00270785    19
